[{"CCSDS_OMM_VERS":"2.0","COMMENT":"GENERATED VIA SPACE-TRACK.ORG API","CREATION_DATE":"2023-05-29T22:26:12","ORIGINATOR":"18 SPCS","OBJECT_NAME":"KSF3-C","OBJECT_ID":"2023-001K","CENTER_NAME":"EARTH","REF_FRAME":"TEME","TIME_SYSTEM":"UTC","MEAN_ELEMENT_THEORY":"SGP4","EPOCH":"2023-05-29T16:47:44.408256","MEAN_MOTION":"15.16460688","ECCENTRICITY":"0.00119130","INCLINATION":"97.4785","RA_OF_ASC_NODE":"209.5023","ARG_OF_PERICENTER":"83.6456","MEAN_ANOMALY":"276.6134","EPHEMERIS_TYPE":"0","CLASSIFICATION_TYPE":"U","NORAD_CAT_ID":"55018","ELEMENT_SET_NO":"999","REV_AT_EPOCH":"2226","BSTAR":"0.00051575000000","MEAN_MOTION_DOT":"0.00009993","MEAN_MOTION_DDOT":"0.0000000000000","SEMIMAJOR_AXIS":"6894.685","PERIOD":"94.958","APOAPSIS":"524.763","PERIAPSIS":"508.336","OBJECT_TYPE":"PAYLOAD","RCS_SIZE":"MEDIUM","COUNTRY_CODE":"LUXE","LAUNCH_DATE":"2023-01-03","SITE":"AFETR","DECAY_DATE":null,"FILE":"3920150","GP_ID":"232752690","TLE_LINE0":"0 KSF3-C","TLE_LINE1":"1 55018U 23001K   23149.69981954  .00009993  00000-0  51575-3 0  9991","TLE_LINE2":"2 55018  97.4785 209.5023 0011913  83.6456 276.6134 15.16460688 22265"},{"CCSDS_OMM_VERS":"2.0","COMMENT":"GENERATED VIA SPACE-TRACK.ORG API","CREATION_DATE":"2023-05-30T03:25:21","ORIGINATOR":"18 SPCS","OBJECT_NAME":"KSF3-C","OBJECT_ID":"2023-001K","CENTER_NAME":"EARTH","REF_FRAME":"TEME","TIME_SYSTEM":"UTC","MEAN_ELEMENT_THEORY":"SGP4","EPOCH":"2023-05-29T21:32:47.691744","MEAN_MOTION":"15.16464445","ECCENTRICITY":"0.00119300","INCLINATION":"97.4785","RA_OF_ASC_NODE":"209.6975","ARG_OF_PERICENTER":"83.0184","MEAN_ANOMALY":"277.2405","EPHEMERIS_TYPE":"0","CLASSIFICATION_TYPE":"U","NORAD_CAT_ID":"55018","ELEMENT_SET_NO":"999","REV_AT_EPOCH":"2229","BSTAR":"0.00051076000000","MEAN_MOTION_DOT":"0.00009896","MEAN_MOTION_DDOT":"0.0000000000000","SEMIMAJOR_AXIS":"6894.673","PERIOD":"94.958","APOAPSIS":"524.764","PERIAPSIS":"508.313","OBJECT_TYPE":"PAYLOAD","RCS_SIZE":"MEDIUM","COUNTRY_CODE":"LUXE","LAUNCH_DATE":"2023-01-03","SITE":"AFETR","DECAY_DATE":null,"FILE":"3920354","GP_ID":"232782488","TLE_LINE0":"0 KSF3-C","TLE_LINE1":"1 55018U 23001K   23149.89777421  .00009896  00000-0  51076-3 0  9993","TLE_LINE2":"2 55018  97.4785 209.6975 0011930  83.0184 277.2405 15.16464445 22299"},{"CCSDS_OMM_VERS":"2.0","COMMENT":"GENERATED VIA SPACE-TRACK.ORG API","CREATION_DATE":"2023-05-30T06:46:13","ORIGINATOR":"18 SPCS","OBJECT_NAME":"KSF3-C","OBJECT_ID":"2023-001K","CENTER_NAME":"EARTH","REF_FRAME":"TEME","TIME_SYSTEM":"UTC","MEAN_ELEMENT_THEORY":"SGP4","EPOCH":"2023-05-30T02:17:50.920800","MEAN_MOTION":"15.16469189","ECCENTRICITY":"0.00119270","INCLINATION":"97.4785","RA_OF_ASC_NODE":"209.8928","ARG_OF_PERICENTER":"82.4262","MEAN_ANOMALY":"277.8325","EPHEMERIS_TYPE":"0","CLASSIFICATION_TYPE":"U","NORAD_CAT_ID":"55018","ELEMENT_SET_NO":"999","REV_AT_EPOCH":"2232","BSTAR":"0.00052493000000","MEAN_MOTION_DOT":"0.00010174","MEAN_MOTION_DDOT":"0.0000000000000","SEMIMAJOR_AXIS":"6894.659","PERIOD":"94.957","APOAPSIS":"524.747","PERIAPSIS":"508.301","OBJECT_TYPE":"PAYLOAD","RCS_SIZE":"MEDIUM","COUNTRY_CODE":"LUXE","LAUNCH_DATE":"2023-01-03","SITE":"AFETR","DECAY_DATE":null,"FILE":"3920456","GP_ID":"232786587","TLE_LINE0":"0 KSF3-C","TLE_LINE1":"1 55018U 23001K   23150.09572825  .00010174  00000-0  52493-3 0  9993","TLE_LINE2":"2 55018  97.4785 209.8928 0011927  82.4262 277.8325 15.16469189 22326"},{"CCSDS_OMM_VERS":"2.0","COMMENT":"GENERATED VIA SPACE-TRACK.ORG API","CREATION_DATE":"2023-05-30T14:26:13","ORIGINATOR":"18 SPCS","OBJECT_NAME":"KSF3-C","OBJECT_ID":"2023-001K","CENTER_NAME":"EARTH","REF_FRAME":"TEME","TIME_SYSTEM":"UTC","MEAN_ELEMENT_THEORY":"SGP4","EPOCH":"2023-05-30T10:12:56.204928","MEAN_MOTION":"15.16474721","ECCENTRICITY":"0.00119080","INCLINATION":"97.4785","RA_OF_ASC_NODE":"210.2180","ARG_OF_PERICENTER":"81.4330","MEAN_ANOMALY":"278.8252","EPHEMERIS_TYPE":"0","CLASSIFICATION_TYPE":"U","NORAD_CAT_ID":"55018","ELEMENT_SET_NO":"999","REV_AT_EPOCH":"2237","BSTAR":"0.00049352000000","MEAN_MOTION_DOT":"0.00009562","MEAN_MOTION_DDOT":"0.0000000000000","SEMIMAJOR_AXIS":"6894.642","PERIOD":"94.957","APOAPSIS":"524.717","PERIAPSIS":"508.297","OBJECT_TYPE":"PAYLOAD","RCS_SIZE":"MEDIUM","COUNTRY_CODE":"LUXE","LAUNCH_DATE":"2023-01-03","SITE":"AFETR","DECAY_DATE":null,"FILE":"3920755","GP_ID":"232793839","TLE_LINE0":"0 KSF3-C","TLE_LINE1":"1 55018U 23001K   23150.42565052  .00009562  00000-0  49352-3 0  9993","TLE_LINE2":"2 55018  97.4785 210.2180 0011908  81.4330 278.8252 15.16474721 22379"},{"CCSDS_OMM_VERS":"2.0","COMMENT":"GENERATED VIA SPACE-TRACK.ORG API","CREATION_DATE":"2023-05-30T17:37:30","ORIGINATOR":"18 SPCS","OBJECT_NAME":"KSF3-C","OBJECT_ID":"2023-001K","CENTER_NAME":"EARTH","REF_FRAME":"TEME","TIME_SYSTEM":"UTC","MEAN_ELEMENT_THEORY":"SGP4","EPOCH":"2023-05-30T13:22:58.273824","MEAN_MOTION":"15.16478537","ECCENTRICITY":"0.00119060","INCLINATION":"97.4784","RA_OF_ASC_NODE":"210.3481","ARG_OF_PERICENTER":"80.9866","MEAN_ANOMALY":"279.2714","EPHEMERIS_TYPE":"0","CLASSIFICATION_TYPE":"U","NORAD_CAT_ID":"55018","ELEMENT_SET_NO":"999","REV_AT_EPOCH":"2239","BSTAR":"0.00052223000000","MEAN_MOTION_DOT":"0.00010124","MEAN_MOTION_DDOT":"0.0000000000000","SEMIMAJOR_AXIS":"6894.630","PERIOD":"94.957","APOAPSIS":"524.704","PERIAPSIS":"508.287","OBJECT_TYPE":"PAYLOAD","RCS_SIZE":"MEDIUM","COUNTRY_CODE":"LUXE","LAUNCH_DATE":"2023-01-03","SITE":"AFETR","DECAY_DATE":null,"FILE":"3920920","GP_ID":"232823396","TLE_LINE0":"0 KSF3-C","TLE_LINE1":"1 55018U 23001K   23150.55761891  .00010124  00000-0  52223-3 0  9993","TLE_LINE2":"2 55018  97.4784 210.3481 0011906  80.9866 279.2714 15.16478537 22398"},{"CCSDS_OMM_VERS":"2.0","COMMENT":"GENERATED VIA SPACE-TRACK.ORG API","CREATION_DATE":"2023-05-30T22:26:12","ORIGINATOR":"18 SPCS","OBJECT_NAME":"KSF3-C","OBJECT_ID":"2023-001K","CENTER_NAME":"EARTH","REF_FRAME":"TEME","TIME_SYSTEM":"UTC","MEAN_ELEMENT_THEORY":"SGP4","EPOCH":"2023-05-30T18:08:01.350816","MEAN_MOTION":"15.16482981","ECCENTRICITY":"0.00119270","INCLINATION":"97.4784","RA_OF_ASC_NODE":"210.5432","ARG_OF_PERICENTER":"80.4316","MEAN_ANOMALY":"279.8264","EPHEMERIS_TYPE":"0","CLASSIFICATION_TYPE":"U","NORAD_CAT_ID":"55018","ELEMENT_SET_NO":"999","REV_AT_EPOCH":"2242","BSTAR":"0.00053844000000","MEAN_MOTION_DOT":"0.00010442","MEAN_MOTION_DDOT":"0.0000000000000","SEMIMAJOR_AXIS":"6894.617","PERIOD":"94.957","APOAPSIS":"524.705","PERIAPSIS":"508.259","OBJECT_TYPE":"PAYLOAD","RCS_SIZE":"MEDIUM","COUNTRY_CODE":"LUXE","LAUNCH_DATE":"2023-01-03","SITE":"AFETR","DECAY_DATE":null,"FILE":"3920940","GP_ID":"232824924","TLE_LINE0":"0 KSF3-C","TLE_LINE1":"1 55018U 23001K   23150.75557119  .00010442  00000-0  53844-3 0  9994","TLE_LINE2":"2 55018  97.4784 210.5432 0011927  80.4316 279.8264 15.16482981 22422"},{"CCSDS_OMM_VERS":"2.0","COMMENT":"GENERATED VIA SPACE-TRACK.ORG API","CREATION_DATE":"2023-05-31T03:16:12","ORIGINATOR":"18 SPCS","OBJECT_NAME":"KSF3-C","OBJECT_ID":"2023-001K","CENTER_NAME":"EARTH","REF_FRAME":"TEME","TIME_SYSTEM":"UTC","MEAN_ELEMENT_THEORY":"SGP4","EPOCH":"2023-05-30T19:43:02.362368","MEAN_MOTION":"15.16483989","ECCENTRICITY":"0.00119090","INCLINATION":"97.4785","RA_OF_ASC_NODE":"210.6083","ARG_OF_PERICENTER":"80.2679","MEAN_ANOMALY":"279.9899","EPHEMERIS_TYPE":"0","CLASSIFICATION_TYPE":"U","NORAD_CAT_ID":"55018","ELEMENT_SET_NO":"999","REV_AT_EPOCH":"2243","BSTAR":"0.00052433000000","MEAN_MOTION_DOT":"0.00010167","MEAN_MOTION_DDOT":"0.0000000000000","SEMIMAJOR_AXIS":"6894.614","PERIOD":"94.956","APOAPSIS":"524.690","PERIAPSIS":"508.268","OBJECT_TYPE":"PAYLOAD","RCS_SIZE":"MEDIUM","COUNTRY_CODE":"LUXE","LAUNCH_DATE":"2023-01-03","SITE":"AFETR","DECAY_DATE":null,"FILE":"3921192","GP_ID":"232856573","TLE_LINE0":"0 KSF3-C","TLE_LINE1":"1 55018U 23001K   23150.82155512  .00010167  00000-0  52433-3 0  9990","TLE_LINE2":"2 55018  97.4785 210.6083 0011909  80.2679 279.9899 15.16483989 22431"},{"CCSDS_OMM_VERS":"2.0","COMMENT":"GENERATED VIA SPACE-TRACK.ORG API","CREATION_DATE":"2023-05-31T06:26:12","ORIGINATOR":"18 SPCS","OBJECT_NAME":"KSF3-C","OBJECT_ID":"2023-001K","CENTER_NAME":"EARTH","REF_FRAME":"TEME","TIME_SYSTEM":"UTC","MEAN_ELEMENT_THEORY":"SGP4","EPOCH":"2023-05-31T02:03:06.364512","MEAN_MOTION":"15.16489951","ECCENTRICITY":"0.00118970","INCLINATION":"97.4784","RA_OF_ASC_NODE":"210.8685","ARG_OF_PERICENTER":"79.5504","MEAN_ANOMALY":"280.7069","EPHEMERIS_TYPE":"0","CLASSIFICATION_TYPE":"U","NORAD_CAT_ID":"55018","ELEMENT_SET_NO":"999","REV_AT_EPOCH":"2247","BSTAR":"0.00053453000000","MEAN_MOTION_DOT":"0.00010368","MEAN_MOTION_DDOT":"0.0000000000000","SEMIMAJOR_AXIS":"6894.596","PERIOD":"94.956","APOAPSIS":"524.663","PERIAPSIS":"508.258","OBJECT_TYPE":"PAYLOAD","RCS_SIZE":"MEDIUM","COUNTRY_CODE":"LUXE","LAUNCH_DATE":"2023-01-03","SITE":"AFETR","DECAY_DATE":null,"FILE":"3921233","GP_ID":"232859054","TLE_LINE0":"0 KSF3-C","TLE_LINE1":"1 55018U 23001K   23151.08549033  .00010368  00000-0  53453-3 0  9990","TLE_LINE2":"2 55018  97.4784 210.8685 0011897  79.5504 280.7069 15.16489951 22472"}]